{
  "type": "Feature",
  "id": "relation/13469980",
  "properties": {
    "admin_level": "8",
    "boundary": "administrative",
    "name": "天平路街道",
    "name:ko": "톈핑루가도",
    "name:zh": "天平路街道",
    "type": "boundary",
    "id": "relation/13469980",
    "description": "上海市徐汇区天平路街道，OSM administrative boundary",
    "source": "OpenStreetMap",
    "osm_relation_id": 13469980,
    "license": "ODbL 1.0",
    "generated": "2026-04-10T00:08:15.958Z"
  },
  "geometry": {
    "type": "Polygon",
    "coordinates": [
      [
        [
          121.451306,
          31.2031758
        ],
        [
          121.4541893,
          31.2040009
        ],
        [
          121.4562349,
          31.2045813
        ],
        [
          121.4577132,
          31.2049017
        ],
        [
          121.4577278,
          31.2049076
        ],
        [
          121.4576809,
          31.2051554
        ],
        [
          121.457642,
          31.2054995
        ],
        [
          121.4576098,
          31.2066443
        ],
        [
          121.4575951,
          31.2068806
        ],
        [
          121.4574087,
          31.2084406
        ],
        [
          121.4573577,
          31.2089751
        ],
        [
          121.4571029,
          31.2113207
        ],
        [
          121.4570492,
          31.21215
        ],
        [
          121.4562101,
          31.2152438
        ],
        [
          121.4561834,
          31.2153267
        ],
        [
          121.4535902,
          31.2146743
        ],
        [
          121.4517854,
          31.2141952
        ],
        [
          121.4499901,
          31.2136892
        ],
        [
          121.4484533,
          31.2132644
        ],
        [
          121.445678,
          31.2125445
        ],
        [
          121.4451483,
          31.2124585
        ],
        [
          121.4434183,
          31.2123518
        ],
        [
          121.4431594,
          31.212205
        ],
        [
          121.4419698,
          31.2114318
        ],
        [
          121.4411089,
          31.2108722
        ],
        [
          121.438939,
          31.2094706
        ],
        [
          121.4352429,
          31.2070813
        ],
        [
          121.4332691,
          31.2058345
        ],
        [
          121.4316031,
          31.2047482
        ],
        [
          121.4314028,
          31.204618
        ],
        [
          121.4306402,
          31.2041557
        ],
        [
          121.4308757,
          31.2039158
        ],
        [
          121.4310698,
          31.203717
        ],
        [
          121.431206,
          31.2035475
        ],
        [
          121.4314353,
          31.2031961
        ],
        [
          121.4315748,
          31.202852
        ],
        [
          121.4316901,
          31.2024138
        ],
        [
          121.4317947,
          31.2019619
        ],
        [
          121.4318939,
          31.2015604
        ],
        [
          121.4320012,
          31.2011245
        ],
        [
          121.4320897,
          31.2007895
        ],
        [
          121.4322238,
          31.2003949
        ],
        [
          121.432294,
          31.2001956
        ],
        [
          121.4336433,
          31.2005642
        ],
        [
          121.4338255,
          31.200129
        ],
        [
          121.4341251,
          31.199735
        ],
        [
          121.4345081,
          31.1993613
        ],
        [
          121.4355845,
          31.198115
        ],
        [
          121.4356377,
          31.1980793
        ],
        [
          121.4358399,
          31.1983468
        ],
        [
          121.436202,
          31.1988119
        ],
        [
          121.4365024,
          31.1992178
        ],
        [
          121.4367026,
          31.1994971
        ],
        [
          121.4369845,
          31.1998477
        ],
        [
          121.437439,
          31.2004314
        ],
        [
          121.438009,
          31.2012312
        ],
        [
          121.4384522,
          31.2018306
        ],
        [
          121.4385273,
          31.2017531
        ],
        [
          121.4400695,
          31.1992031
        ],
        [
          121.4402409,
          31.1989183
        ],
        [
          121.4436167,
          31.2003307
        ],
        [
          121.4458866,
          31.2013166
        ],
        [
          121.4489356,
          31.2023599
        ],
        [
          121.4512476,
          31.2031578
        ],
        [
          121.451306,
          31.2031758
        ]
      ]
    ]
  }
}